[
  {
    "ORDINAL": "1",
    "COMMENT": "GENERATED VIA SPACETRACK.ORG API",
    "ORIGINATOR": "18 SPCS",
    "NORAD_CAT_ID": "570",
    "OBJECT_NAME": "SL-3 R/B",
    "OBJECT_TYPE": "ROCKET BODY",
    "CLASSIFICATION_TYPE": "U",
    "INTLDES": "63011B",
    "EPOCH": "1963-05-01 06:30:03",
    "EPOCH_MICROSECONDS": "678624",
    "MEAN_MOTION": "16.34492742",
    "ECCENTRICITY": "0.0040394",
    "INCLINATION": "64.9246",
    "RA_OF_ASC_NODE": "339.9774",
    "ARG_OF_PERICENTER": "79.6004",
    "MEAN_ANOMALY": "280.8562",
    "EPHEMERIS_TYPE": "0",
    "ELEMENT_SET_NO": "999",
    "REV_AT_EPOCH": "144",
    "BSTAR": "0",
    "MEAN_MOTION_DOT": "0.03185337",
    "MEAN_MOTION_DDOT": "0",
    "FILE": "33909",
    "TLE_LINE0": "0 SL-3 R/B",
    "TLE_LINE1": "1 00570U 63011  B 63121.27087591  .03185337 +00000-0 +00000-0 0  9995",
    "TLE_LINE2": "2 00570 064.9246 339.9774 0040394 079.6004 280.8562 16.34492742001445",
    "OBJECT_ID": "1963-011B",
    "OBJECT_NUMBER": "570",
    "SEMIMAJOR_AXIS": "6558.635",
    "PERIOD": "88.101",
    "APOGEE": "206.993",
    "PERIGEE": "154.007",
    "DECAYED": "1"
  },
  {
    "ORDINAL": "1",
    "COMMENT": "GENERATED VIA SPACETRACK.ORG API",
    "ORIGINATOR": "18 SPCS",
    "NORAD_CAT_ID": "571",
    "OBJECT_NAME": "COSMOS 16",
    "OBJECT_TYPE": "PAYLOAD",
    "CLASSIFICATION_TYPE": "U",
    "INTLDES": "63012A",
    "EPOCH": "1963-05-07 18:29:13",
    "EPOCH_MICROSECONDS": "352351",
    "MEAN_MOTION": "15.96121326",
    "ECCENTRICITY": "0.0141756",
    "INCLINATION": "64.9847",
    "RA_OF_ASC_NODE": "350.0868",
    "ARG_OF_PERICENTER": "49.1891",
    "MEAN_ANOMALY": "312.0318",
    "EPHEMERIS_TYPE": "0",
    "ELEMENT_SET_NO": "999",
    "REV_AT_EPOCH": "150",
    "BSTAR": "0",
    "MEAN_MOTION_DOT": "0.00108029",
    "MEAN_MOTION_DDOT": "0",
    "FILE": "33909",
    "TLE_LINE0": "0 COSMOS 16",
    "TLE_LINE1": "1 00571U 63012  A 63127.77029343  .00108029 +00000-0 +00000-0 0  9999",
    "TLE_LINE2": "2 00571 064.9847 350.0868 0141756 049.1891 312.0318 15.96121326001509",
    "OBJECT_ID": "1963-012A",
    "OBJECT_NUMBER": "571",
    "SEMIMAJOR_AXIS": "6663.333",
    "PERIOD": "90.219",
    "APOGEE": "379.655",
    "PERIGEE": "190.741",
    "DECAYED": "1"
  },
  {
    "ORDINAL": "1",
    "COMMENT": "GENERATED VIA SPACETRACK.ORG API",
    "ORIGINATOR": "18 SPCS",
    "NORAD_CAT_ID": "572",
    "OBJECT_NAME": "SL-3 R/B",
    "OBJECT_TYPE": "ROCKET BODY",
    "CLASSIFICATION_TYPE": "U",
    "INTLDES": "63012B",
    "EPOCH": "1963-05-19 05:52:21",
    "EPOCH_MICROSECONDS": "362880",
    "MEAN_MOTION": "16.30164955",
    "ECCENTRICITY": "0.0021048",
    "INCLINATION": "65.0175",
    "RA_OF_ASC_NODE": "307.7145",
    "ARG_OF_PERICENTER": "56.3851",
    "MEAN_ANOMALY": "303.8202",
    "EPHEMERIS_TYPE": "0",
    "ELEMENT_SET_NO": "999",
    "REV_AT_EPOCH": "335",
    "BSTAR": "0",
    "MEAN_MOTION_DOT": "0.02545728",
    "MEAN_MOTION_DDOT": "0.012543",
    "FILE": "33909",
    "TLE_LINE0": "0 SL-3 R/B",
    "TLE_LINE1": "1 00572U 63012  B 63139.24469170  .02545728 +12543-1 +00000-0 0  9990",
    "TLE_LINE2": "2 00572 065.0175 307.7145 0021048 056.3851 303.8202 16.30164955003359",
    "OBJECT_ID": "1963-012B",
    "OBJECT_NUMBER": "572",
    "SEMIMAJOR_AXIS": "6570.238",
    "PERIOD": "88.335",
    "APOGEE": "205.932",
    "PERIGEE": "178.274",
    "DECAYED": "1"
  },
  {
    "ORDINAL": "1",
    "COMMENT": "GENERATED VIA SPACETRACK.ORG API",
    "ORIGINATOR": "18 SPCS",
    "NORAD_CAT_ID": "573",
    "OBJECT_NAME": "TELSTAR 2 (A-41)",
    "OBJECT_TYPE": "PAYLOAD",
    "CLASSIFICATION_TYPE": "U",
    "INTLDES": "63013A",
    "EPOCH": "2023-02-02 04:28:34",
    "EPOCH_MICROSECONDS": "457088",
    "MEAN_MOTION": "6.39271388",
    "ECCENTRICITY": "0.4017313",
    "INCLINATION": "42.7386",
    "RA_OF_ASC_NODE": "203.4579",
    "ARG_OF_PERICENTER": "92.2429",
    "MEAN_ANOMALY": "35.997",
    "EPHEMERIS_TYPE": "0",
    "ELEMENT_SET_NO": "999",
    "REV_AT_EPOCH": "50741",
    "BSTAR": "0.000058041",
    "MEAN_MOTION_DOT": "-0.00000005",
    "MEAN_MOTION_DDOT": "0",
    "FILE": "3768366",
    "TLE_LINE0": "0 TELSTAR 2 (A-41)",
    "TLE_LINE1": "1 00573U 63013A   23033.18650992 -.00000005  00000-0  58041-4 0  9997",
    "TLE_LINE2": "2 00573  42.7386 203.4579 4017313  92.2429  35.9970  6.39271388507411",
    "OBJECT_ID": "1963-013A",
    "OBJECT_NUMBER": "573",
    "SEMIMAJOR_AXIS": "12263.422",
    "PERIOD": "225.256",
    "APOGEE": "10811.887",
    "PERIGEE": "958.686",
    "DECAYED": "0"
  },
  {
    "ORDINAL": "1",
    "COMMENT": "GENERATED VIA SPACETRACK.ORG API",
    "ORIGINATOR": "18 SPCS",
    "NORAD_CAT_ID": "574",
    "OBJECT_NAME": "MIDAS 6 (FTV 1169)",
    "OBJECT_TYPE": "PAYLOAD",
    "CLASSIFICATION_TYPE": "U",
    "INTLDES": "63014A",
    "EPOCH": "2023-02-02 13:13:39",
    "EPOCH_MICROSECONDS": "735840",
    "MEAN_MOTION": "8.65272154",
    "ECCENTRICITY": "0.0033492",
    "INCLINATION": "87.3321",
    "RA_OF_ASC_NODE": "313.3216",
    "ARG_OF_PERICENTER": "270.5542",
    "MEAN_ANOMALY": "89.1475",
    "EPHEMERIS_TYPE": "0",
    "ELEMENT_SET_NO": "999",
    "REV_AT_EPOCH": "11133",
    "BSTAR": "-0.0096956",
    "MEAN_MOTION_DOT": "-0.00000018",
    "MEAN_MOTION_DDOT": "0",
    "FILE": "3768366",
    "TLE_LINE0": "0 MIDAS 6 (FTV 1169)",
    "TLE_LINE1": "1 00574U 63014A   23033.55115435 -.00000018  00000-0 -96956-2 0  9998",
    "TLE_LINE2": "2 00574  87.3321 313.3216 0033492 270.5542  89.1475  8.65272154111330",
    "OBJECT_ID": "1963-014A",
    "OBJECT_NUMBER": "574",
    "SEMIMAJOR_AXIS": "10022.284",
    "PERIOD": "166.422",
    "APOGEE": "3677.715",
    "PERIGEE": "3610.582",
    "DECAYED": "0"
  },
  {
    "ORDINAL": "1",
    "COMMENT": "GENERATED VIA SPACETRACK.ORG API",
    "ORIGINATOR": "18 SPCS",
    "NORAD_CAT_ID": "575",
    "OBJECT_NAME": "DELTA 1 R/B",
    "OBJECT_TYPE": "ROCKET BODY",
    "CLASSIFICATION_TYPE": "U",
    "INTLDES": "63013B",
    "EPOCH": "2023-02-02 17:02:03",
    "EPOCH_MICROSECONDS": "238944",
    "MEAN_MOTION": "6.40262302",
    "ECCENTRICITY": "0.4010439",
    "INCLINATION": "42.749",
    "RA_OF_ASC_NODE": "147.4773",
    "ARG_OF_PERICENTER": "153.3442",
    "MEAN_ANOMALY": "356.3923",
    "EPHEMERIS_TYPE": "0",
    "ELEMENT_SET_NO": "999",
    "REV_AT_EPOCH": "39738",
    "BSTAR": "-0.0014259",
    "MEAN_MOTION_DOT": "-0.00000108",
    "MEAN_MOTION_DDOT": "0",
    "FILE": "3768448",
    "TLE_LINE0": "0 DELTA 1 R/B",
    "TLE_LINE1": "1   575U 63013B   23033.70975971 -.00000108  00000-0 -14259-2 0  9990",
    "TLE_LINE2": "2   575  42.7490 147.4773 4010439 153.3442 356.3923  6.40262302397387",
    "OBJECT_ID": "1963-013B",
    "OBJECT_NUMBER": "575",
    "SEMIMAJOR_AXIS": "12250.765",
    "PERIOD": "224.908",
    "APOGEE": "10785.725",
    "PERIGEE": "959.536",
    "DECAYED": "0"
  },
  {
    "ORDINAL": "1",
    "COMMENT": "GENERATED VIA SPACETRACK.ORG API",
    "ORIGINATOR": "18 SPCS",
    "NORAD_CAT_ID": "576",
    "OBJECT_NAME": "MERCURY ATLAS 9",
    "OBJECT_TYPE": "PAYLOAD",
    "CLASSIFICATION_TYPE": "U",
    "INTLDES": "63015A",
    "EPOCH": "1963-05-15 17:17:57",
    "EPOCH_MICROSECONDS": "758496",
    "MEAN_MOTION": "16.21829859",
    "ECCENTRICITY": "0.0077884",
    "INCLINATION": "32.543",
    "RA_OF_ASC_NODE": "289.47",
    "ARG_OF_PERICENTER": "72.4399",
    "MEAN_ANOMALY": "288.271",
    "EPHEMERIS_TYPE": "0",
    "ELEMENT_SET_NO": "999",
    "REV_AT_EPOCH": "3",
    "BSTAR": "0",
    "MEAN_MOTION_DOT": "0.00862827",
    "MEAN_MOTION_DDOT": "0",
    "FILE": "33909",
    "TLE_LINE0": "0 MERCURY ATLAS 9",
    "TLE_LINE1": "1 00576U 63015  A 63135.72080739  .00862827 +00000-0 +00000-0 0  9990",
    "TLE_LINE2": "2 00576 032.5430 289.4700 0077884 072.4399 288.2710 16.21829859000037",
    "OBJECT_ID": "1963-015A",
    "OBJECT_NUMBER": "576",
    "SEMIMAJOR_AXIS": "6592.730",
    "PERIOD": "88.789",
    "APOGEE": "265.941",
    "PERIGEE": "163.248",
    "DECAYED": "1"
  },
  {
    "ORDINAL": "1",
    "COMMENT": "GENERATED VIA SPACETRACK.ORG API",
    "ORIGINATOR": "18 SPCS",
    "NORAD_CAT_ID": "577",
    "OBJECT_NAME": "ATLAS D R/B",
    "OBJECT_TYPE": "ROCKET BODY",
    "CLASSIFICATION_TYPE": "U",
    "INTLDES": "63015B",
    "EPOCH": "1963-05-15 17:16:51",
    "EPOCH_MICROSECONDS": "231359",
    "MEAN_MOTION": "16.29878604",
    "ECCENTRICITY": "0.0045022",
    "INCLINATION": "32.543",
    "RA_OF_ASC_NODE": "289.47",
    "ARG_OF_PERICENTER": "72.4399",
    "MEAN_ANOMALY": "287.9111",
    "EPHEMERIS_TYPE": "0",
    "ELEMENT_SET_NO": "999",
    "REV_AT_EPOCH": "3",
    "BSTAR": "0",
    "MEAN_MOTION_DOT": "0.00877773",
    "MEAN_MOTION_DDOT": "0",
    "FILE": "33909",
    "TLE_LINE0": "0 ATLAS D R/B",
    "TLE_LINE1": "1 00577U 63015  B 63135.72003740  .00877773 +00000-0 +00000-0 0  9994",
    "TLE_LINE2": "2 00577 032.5430 289.4700 0045022 072.4399 287.9111 16.29878604000038",
    "OBJECT_ID": "1963-015B",
    "OBJECT_NUMBER": "577",
    "SEMIMAJOR_AXIS": "6571.007",
    "PERIOD": "88.350",
    "APOGEE": "222.456",
    "PERIGEE": "163.288",
    "DECAYED": "1"
  }
]
